OBJECT_NAME,OBJECT_ID,EPOCH,MEAN_MOTION,ECCENTRICITY,INCLINATION,RA_OF_ASC_NODE,ARG_OF_PERICENTER,MEAN_ANOMALY,EPHEMERIS_TYPE,CLASSIFICATION_TYPE,NORAD_CAT_ID,ELEMENT_SET_NO,REV_AT_EPOCH,BSTAR,MEAN_MOTION_DOT,MEAN_MOTION_DDOT
SPACEMOBILE-008,2026-139A,2026-07-12T20:10:22.636128,15.12800321,.000497,52.9944,146.0977,50.9222,309.2211,0,U,69589,999,386,.11217E-4,-.102E-5,0
SPACEMOBILE-009,2026-139B,2026-07-12T20:12:57.813120,15.12693616,.0005197,52.9935,146.1036,46.5780,313.5643,0,U,69590,999,386,.11515E-4,-.97E-6,0
SPACEMOBILE-010,2026-139C,2026-07-12T06:00:42.241824,15.12524273,.0005089,52.9941,148.8229,36.8911,323.2429,0,U,69591,999,378,.13955E-4,-.55E-6,0
