SPACEMOBILE-008         
1 69589U 26139A   26193.84053977 -.00000102  00000+0  11217-4 0  9991
2 69589  52.9944 146.0977 0004970  50.9222 309.2211 15.12800321  3864
SPACEMOBILE-009         
1 69590U 26139B   26193.84233580 -.00000097  00000+0  11515-4 0  9997
2 69590  52.9935 146.1036 0005197  46.5780 313.5643 15.12693616  3869
SPACEMOBILE-010         
1 69591U 26139C   26193.25048891 -.00000055  00000+0  13955-4 0  9996
2 69591  52.9941 148.8229 0005089  36.8911 323.2429 15.12524273  3781
